NORAD_CAT_ID,OBJECT_NAME,OBJECT_TYPE,EPOCH,MEAN_MOTION,ECCENTRICITY,INCLINATION,RA_OF_ASC_NODE,ARG_OF_PERICENTER,MEAN_ANOMALY,BSTAR,MEAN_MOTION_DOT,MEAN_MOTION_DDOT,TLE_LINE0,TLE_LINE1,TLE_LINE2,SEMIMAJOR_AXIS,PERIOD,APOGEE,PERIGEE,DECAYED
55791.0,STARLINK-5807,PAYLOAD,2024-07-30 19:04:24,14.98330843,0.0003344,69.9978,244.2805,270.3031,89.7745,2.0504e-05,1.52e-06,0.0,0 STARLINK-5807,1 55791U 23028BC  24212.79472625  .00000152  00000-0  20504-4 0  9998,2 55791  69.9978 244.2805 0003344 270.3031  89.7745 14.98330843 79113,6950.19,96.107,574.379,569.731,0.0
55791.0,STARLINK-5807,PAYLOAD,2024-07-31 04:41:12,14.98330753,0.0003264,69.9979,243.271,268.2011,91.8775,-1.2342e-07,-9.5e-07,0.0,0 STARLINK-5807,1 55791U 23028BC  24213.19528672 -.00000095  00000-0 -12342-6 0  9998,2 55791  69.9979 243.2710 0003264 268.2011  91.8775 14.98330753 79165,6950.191,96.107,574.324,569.787,0.0
55791.0,STARLINK-5807,PAYLOAD,2024-07-31 11:05:43,14.98346999,0.0003234,69.9981,242.5976,269.5641,90.5147,0.00017799,2.032e-05,0.0,0 STARLINK-5807,1 55791U 23028BC  24213.46231130  .00002032  00000-0  17799-3 0  9997,2 55791  69.9981 242.5976 0003234 269.5641  90.5147 14.98346999 79207,6950.14,96.106,574.253,569.758,0.0
55791.0,STARLINK-5807,PAYLOAD,2024-08-01 11:07:44,14.9834341,0.0003228,69.998,240.0723,269.9802,90.0987,9.8402e-05,1.082e-05,0.0,0 STARLINK-5807,1 55791U 23028BC  24214.46370596  .00001082  00000-0  98402-4 0  9993,2 55791  69.9980 240.0723 0003228 269.9802  90.0987 14.98343410 79364,6950.151,96.106,574.26,569.773,0.0
55791.0,STARLINK-5807,PAYLOAD,2024-08-02 04:45:13,14.98329162,0.0002914,69.9999,238.2245,243.6691,116.4169,-0.00010404,-1.334e-05,0.0,0 STARLINK-5807,1 55791U 23028BC  24215.19807811 -.00001334  00000-0 -10404-3 0  9996,2 55791  69.9999 238.2245 0002914 243.6691 116.4169 14.98329162 79462,6950.195,96.107,574.086,570.035,0.0
55791.0,STARLINK-5807,PAYLOAD,2024-08-02 11:09:46,14.98322431,0.0003351,69.9977,237.5466,267.5288,92.5487,-0.00012924,-1.635e-05,0.0,0 STARLINK-5807,1 55791U 23028BC  24215.46512403 -.00001635  00000-0 -12924-3 0  9999,2 55791  69.9977 237.5466 0003351 267.5288  92.5487 14.98322431 79502,6950.216,96.107,574.41,569.752,0.0
55791.0,STARLINK-5807,PAYLOAD,2024-08-03 04:47:15,14.98330297,0.0003134,69.9983,235.6957,265.0925,94.9876,-0.00014321,-1.801e-05,0.0,0 STARLINK-5807,1 55791U 23028BC  24216.19947950 -.00001801  00000-0 -14321-3 0  9997,2 55791  69.9983 235.6957 0003134 265.0925  94.9876 14.98330297 79612,6950.192,96.107,574.235,569.879,0.0
55791.0,STARLINK-5807,PAYLOAD,2024-08-03 11:11:47,14.98327188,0.0003218,69.9982,235.0224,265.9132,94.1659,-0.00016852,-2.103e-05,0.0,0 STARLINK-5807,1 55791U 23028BC  24216.46652259 -.00002103  00000-0 -16852-3 0  9999,2 55791  69.9982 235.0224 0003218 265.9132  94.1659 14.98327188 79665,6950.202,96.107,574.303,569.83,0.0
55791.0,STARLINK-5807,PAYLOAD,2024-08-03 19:12:27,14.98328091,0.0003373,69.9978,234.18,266.3964,93.681,-7.8517e-05,-1.03e-05,0.0,0 STARLINK-5807,1 55791U 23028BC  24216.80032017 -.00001030  00000-0 -78517-4 0  9996,2 55791  69.9978 234.1800 0003373 266.3964  93.6810 14.98328091 79713,6950.199,96.107,574.408,569.719,0.0
55791.0,STARLINK-5807,PAYLOAD,2024-08-04 04:49:16,14.98321013,0.0003456,69.9978,233.1698,267.3554,92.721,8.9851e-05,9.79e-06,0.0,0 STARLINK-5807,1 55791U 23028BC  24217.20088210  .00000979  00000-0  89851-4 0  9999,2 55791  69.9978 233.1698 0003456 267.3554  92.7210 14.98321013 79761,6950.221,96.108,574.488,569.684,0.0
55791.0,STARLINK-5807,PAYLOAD,2024-08-04 09:37:40,14.98322867,0.0003445,69.9979,232.6649,267.3563,92.7202,0.00010502,1.16e-05,0.0,0 STARLINK-5807,1 55791U 23028BC  24217.40116158  .00001160  00000-0  10502-3 0  9993,2 55791  69.9979 232.6649 0003445 267.3563  92.7202 14.98322867 79804,6950.215,96.107,574.474,569.686,0.0
55791.0,STARLINK-5807,PAYLOAD,2024-08-05 04:51:16,14.9833039,0.0003433,69.9981,230.6449,267.4493,92.6274,9.5867e-05,1.051e-05,0.0,0 STARLINK-5807,1 55791U 23028BC  24218.20227904  .00001051  00000-0  95867-4 0  9991,2 55791  69.9981 230.6449 0003433 267.4493  92.6274 14.98330390 79913,6950.192,96.107,574.443,569.671,0.0
55791.0,STARLINK-5807,PAYLOAD,2024-08-05 17:40:21,14.98325909,0.0003385,69.9984,229.2983,267.5848,92.4923,2.1206e-05,1.6e-06,0.0,0 STARLINK-5807,1 55791U 23028BC  24218.73636352  .00000160  00000-0  21206-4 0  9996,2 55791  69.9984 229.2983 0003385 267.5848  92.4923 14.98325909 80005,6950.206,96.107,574.423,569.718,0.0
55791.0,STARLINK-5807,PAYLOAD,2024-08-06 04:53:18,14.9832289,0.0003289,69.9987,228.1202,268.3962,91.682,-6.97e-05,-9.24e-06,0.0,0 STARLINK-5807,1 55791U 23028BC  24219.20368937 -.00000924  00000-0 -69700-4 0  9991,2 55791  69.9987 228.1202 0003289 268.3962  91.6820 14.98322890 80068,6950.215,96.107,574.366,569.794,0.0
55791.0,STARLINK-5807,PAYLOAD,2024-08-06 08:05:36,14.98307148,0.0003176,69.9996,227.7842,280.1517,79.9284,-0.00018416,-2.288e-05,0.0,0 STARLINK-5807,1 55791U 23028BC  24219.33722511 -.00002288  00000-0 -18416-3 0  9999,2 55791  69.9996 227.7842 0003176 280.1517  79.9284 14.98307148 80080,6950.264,96.108,574.336,569.921,0.0
55791.0,STARLINK-5807,PAYLOAD,2024-08-06 17:42:25,14.98306669,0.0003571,69.9983,226.7729,272.1706,87.9044,-0.00023817,-2.932e-05,0.0,0 STARLINK-5807,1 55791U 23028BC  24219.73779079 -.00002932  00000-0 -23817-3 0  9991,2 55791  69.9983 226.7729 0003571 272.1706  87.9044 14.98306669 80157,6950.265,96.108,574.612,569.648,0.0
55791.0,STARLINK-5807,PAYLOAD,2024-08-07 03:19:12,14.98324141,0.0003287,69.9992,225.7644,269.5031,90.5751,-7.0852e-05,-9.38e-06,0.0,0 STARLINK-5807,1 55791U 23028BC  24220.13833915 -.00000938  00000-0 -70852-4 0  9993,2 55791  69.9992 225.7644 0003287 269.5031  90.5751 14.98324141 80203,6950.211,96.107,574.361,569.791,0.0
55791.0,STARLINK-5807,PAYLOAD,2024-08-07 09:43:44,14.98322884,0.0003208,69.9993,225.0907,271.932,88.1472,-5.8078e-05,-7.86e-06,0.0,0 STARLINK-5807,1 55791U 23028BC  24220.40538125 -.00000786  00000-0 -58078-4 0  9995,2 55791  69.9993 225.0907 0003208 271.9320  88.1472 14.98322884 80250,6950.215,96.107,574.31,569.85,0.0
55791.0,STARLINK-5807,PAYLOAD,2024-08-08 09:45:45,14.98325522,0.0003342,69.9989,222.5657,270.46,89.6177,0.0001194,1.332e-05,0.0,0 STARLINK-5807,1 55791U 23028BC  24221.40677903  .00001332  00000-0  11940-3 0  9996,2 55791  69.9989 222.5657 0003342 270.4600  89.6177 14.98325522 80400,6950.207,96.107,574.394,569.749,0.0
55791.0,STARLINK-5807,PAYLOAD,2024-08-09 09:47:46,14.98338086,0.0003441,69.9989,220.0412,272.9278,87.1487,0.00013928,1.57e-05,0.0,0 STARLINK-5807,1 55791U 23028BC  24222.40817197  .00001570  00000-0  13928-3 0  9990,2 55791  69.9989 220.0412 0003441 272.9278  87.1487 14.98338086 80541,6950.168,96.106,574.424,569.641,0.0
55791.0,STARLINK-5807,PAYLOAD,2024-08-09 17:48:26,14.98338608,0.0003423,69.9989,219.1988,273.6471,86.4296,0.00010006,1.101e-05,0.0,0 STARLINK-5807,1 55791U 23028BC  24222.74197086  .00001101  00000-0  10006-3 0  9999,2 55791  69.9989 219.1988 0003423 273.6471  86.4296 14.98338608 80608,6950.166,96.106,574.41,569.652,0.0
55791.0,STARLINK-5807,PAYLOAD,2024-08-10 09:49:46,14.98342896,0.0003365,69.999,217.5158,273.3481,86.7293,8.7993e-05,9.57e-06,0.0,0 STARLINK-5807,1 55791U 23028BC  24223.40956397  .00000957  00000-0  87993-4 0  9999,2 55791  69.9990 217.5158 0003365 273.3481  86.7293 14.98342896 80697,6950.153,96.106,574.357,569.679,0.0
55791.0,STARLINK-5807,PAYLOAD,2024-08-11 01:51:07,14.98337327,0.0003349,69.999,215.8325,272.9998,87.0778,-7.5433e-05,-9.93e-06,0.0,0 STARLINK-5807,1 55791U 23028BC  24224.07716735 -.00000993  00000-0 -75433-4 0  9991,2 55791  69.9990 215.8325 0003349 272.9998  87.0778 14.98337327 80790,6950.17,96.107,574.363,569.708,0.0
55791.0,STARLINK-5807,PAYLOAD,2024-08-11 16:16:19,14.98340951,0.0003343,69.999,214.3173,272.4629,87.6147,-0.00010726,-1.373e-05,0.0,0 STARLINK-5807,1 55791U 23028BC  24224.67800169 -.00001373  00000-0 -10726-3 0  9998,2 55791  69.9990 214.3173 0003343 272.4629  87.6147 14.98340951 80899,6950.159,96.106,574.347,569.701,0.0
55791.0,STARLINK-5807,PAYLOAD,2024-08-12 05:05:24,14.9830644,0.0003429,69.9992,212.972,265.8285,94.2482,0.00050509,5.935e-05,0.0,0 STARLINK-5807,1 55791U 23028BC  24225.21208676  .00005935  00000-0  50509-3 0  9993,2 55791  69.9992 212.9720 0003429 265.8285  94.2482 14.98306440 80961,6950.266,96.109,574.514,569.748,0.0
55791.0,STARLINK-5807,PAYLOAD,2024-08-12 08:17:39,14.98341538,0.0003177,69.9993,212.6358,262.645,97.4348,-1.141e-05,-2.29e-06,0.0,0 STARLINK-5807,1 55791U 23028BC  24225.34559488 -.00000229  00000-0 -11410-4 0  9999,2 55791  69.9993 212.6358 0003177 262.6450  97.4348 14.98341538 80980,6950.157,96.106,574.23,569.814,0.0
55791.0,STARLINK-5807,PAYLOAD,2024-08-12 22:42:52,14.98288546,0.0002955,69.9994,211.1204,264.9667,95.1155,0.00065812,7.76e-05,0.0,0 STARLINK-5807,1 55791U 23028BC  24225.94644058  .00007760  00000-0  65812-3 0  9992,2 55791  69.9994 211.1204 0002955 264.9667  95.1155 14.98288546 81085,6950.321,96.11,574.24,570.132,0.0
55791.0,STARLINK-5807,PAYLOAD,2024-08-13 05:07:24,14.98333703,0.0003108,69.9993,210.4472,267.2631,92.8172,-5.963e-06,-1.64e-06,0.0,0 STARLINK-5807,1 55791U 23028BC  24226.21347636 -.00000164  00000-0 -59630-5 0  9991,2 55791  69.9993 210.4472 0003108 267.2631  92.8172 14.98333703 81114,6950.181,96.107,574.207,569.886,0.0
55791.0,STARLINK-5807,PAYLOAD,2024-08-13 09:55:48,14.98334873,0.0003097,69.9995,209.9421,266.7972,93.2833,3.1965e-05,2.88e-06,0.0,0 STARLINK-5807,1 55791U 23028BC  24226.41375398  .00000288  00000-0  31965-4 0  9994,2 55791  69.9995 209.9421 0003097 266.7972  93.2833 14.98334873 81154,6950.178,96.107,574.195,569.89,0.0
55791.0,STARLINK-5807,PAYLOAD,2024-08-13 16:20:21,14.98327519,0.0002432,69.9992,209.2665,278.6605,81.4279,-0.0002029,-2.513e-05,0.0,0 STARLINK-5807,1 55791U 23028BC  24226.68080755 -.00002513  00000-0 -20290-3 0  9996,2 55791  69.9992 209.2665 0002432 278.6605  81.4279 14.98327519 81186,6950.201,96.107,573.756,570.375,0.0
